STARLINK-30558          
1 58060U 23158K   24229.35731132 -.00000764  00000+0 -41498-4 0  9990
2 58060  43.0042 249.7685 0002367 271.4980  88.5591 15.02532257 47733
STARLINK-30579          
1 58061U 23158L   24228.71634086  .00001173  00000+0  10191-3 0  9998
2 58061  43.0049 227.4016 0001029 264.0302  96.0424 15.02536148 47936
STARLINK-30588          
1 58062U 23158M   24229.51014079  .00006084  00000+0  46494-3 0  9993
2 58062  43.0029 248.3472 0001510 266.2220  93.8450 15.02543577 47760
STARLINK-30585          
1 58063U 23158N   24229.36719190  .00010362  00000+0  78066-3 0  9997
2 58063  43.0009 248.9988 0001328 267.3404  92.7286 15.02551190 47743
STARLINK-30587          
1 58064U 23158P   24228.78220794  .00001899  00000+0  15560-3 0  9995
2 58064  43.0010 252.3479 0001212 260.8237  99.2468 15.02535882 47658
STARLINK-30576          
1 58065U 23158Q   24228.34349791  .00000960  00000+0  86138-4 0  9995
2 58065  43.0033 255.0779 0001439 257.9387 102.1294 15.02533011 47586
STARLINK-30571          
1 58066U 23158R   24229.36053670  .00008824  00000+0  66743-3 0  9993
2 58066  42.9976 248.9481 0000573 142.2491 217.8392 15.02537794 47745
STARLINK-30567          
1 58067U 23158S   24229.35510772  .00012631  00000+0  94805-3 0  9995
2 58067  43.0000 249.7488 0000711 262.3033  97.7729 15.02550482 47739
STARLINK-30569          
1 58068U 23158T   24228.37668340  .00008166  00000+0  61886-3 0  9993
2 58068  43.0015 254.4650 0001500 281.6860  78.3813 15.02535230 47596
STARLINK-30480          
1 58069U 23158U   24228.71078353  .00010512  00000+0  41081-3 0  9994
2 58069  43.0003 226.2826 0004932 260.0564  99.9731 15.25929422 47953
STARLINK-30532          
1 58070U 23158V   24229.37052600  .00004538  00000+0  35081-3 0  9990
2 58070  43.0024 249.0181 0001310 277.0782  82.9911 15.02532709 47744
STARLINK-30513          
1 58071U 23158W   24228.99624898 -.00000957  00000+0 -15650-4 0  9996
2 58071  43.0050 126.8866 0000534  97.2189 262.8729 15.40692846 49127
STARLINK-30506          
1 58072U 23158X   24229.36382476 -.00010484  00000+0 -76237-3 0  9995
2 58072  43.0015 248.9684 0001030 269.9989  90.0735 15.02525398 47740
YUNHAI-1 04             
1 58073U 23159A   24229.84015810  .00001020  00000+0  38775-3 0  9994
2 58073  98.5642 254.7956 0000924  81.2685 278.8604 14.33112763 43948
2023-190A               
1 58505U 23190A   24229.89292631  .00000143  00000+0  23710-3 0  9990
2 58505  86.5062 204.0651 0002286  94.9500 265.1903 13.39487226 35093
STARLINK-31026          
1 58508U 23191A   24229.00986937  .00008378  00000+0  63460-3 0  9990
2 58508  43.0010 327.9836 0001190 270.2813  89.7893 15.02533408 39588
STARLINK-31020          
1 58509U 23191B   24229.00665720  .00001181  00000+0  10248-3 0  9996
2 58509  42.9973 328.8032 0000824 134.0595 226.0315 15.02527340 39572
STARLINK-30989          
1 58510U 23191C   24229.75307287  .00004301  00000+0  33321-3 0  9995
2 58510  43.0066 323.2486 0002846 300.2561  59.8000 15.02545030 39745
STARLINK-30968          
1 58511U 23191D   24229.61680715  .00005666  00000+0  43438-3 0  9996
2 58511  43.0080 323.9416 0002879 276.1458  83.9056 15.02515886 39660
STARLINK-30982          
1 58512U 23191E   24229.74642129  .00005483  00000+0  42049-3 0  9992
2 58512  43.0065 323.1900 0002591 271.4764  88.5781 15.02548011 39621
STARLINK-30998          
1 58513U 23191F   24228.54648043  .00003264  00000+0  25658-3 0  9993
2 58513  43.0033 329.6628 0001681 270.4739  89.5911 15.02541614 39555
STARLINK-30983          
1 58514U 23191G   24229.56684241  .00001124  00000+0  98260-4 0  9990
2 58514  43.0034 323.5741 0000924 268.3157  91.7579 15.02550471 39270
STARLINK-31017          
1 58515U 23191H   24229.29638410 -.00000618  00000+0 -75508-5 0  9998
2 58515  42.9998 237.6545 0000490 183.7780 176.3073 15.40699165 40654
STARLINK-31028          
1 58516U 23191J   24229.00516165  .00002969  00000+0  23470-3 0  9998
2 58516  42.9975 327.0888 0003355 263.8411  96.2050 15.02551565 39593
STARLINK-31011          
1 58517U 23191K   24229.00850046  .00008251  00000+0  62494-3 0  9997
2 58517  42.9998 327.1118 0002738 258.2531 101.8005 15.02548147 39596
STARLINK-31021          
1 58518U 23191L   24229.75627339  .00003401  00000+0  26654-3 0  9997
2 58518  43.0037 322.3876 0001346 259.7286 100.3405 15.02562069 39742
STARLINK-31010          
1 58519U 23191M   24228.96188336  .00007168  00000+0  54534-3 0  9991
2 58519  43.0094 326.7180 0001174 266.6218  93.4490 15.02524688 39597
