OBJECT_NAME,OBJECT_ID,EPOCH,MEAN_MOTION,ECCENTRICITY,INCLINATION,RA_OF_ASC_NODE,ARG_OF_PERICENTER,MEAN_ANOMALY,EPHEMERIS_TYPE,CLASSIFICATION_TYPE,NORAD_CAT_ID,ELEMENT_SET_NO,REV_AT_EPOCH,BSTAR,MEAN_MOTION_DOT,MEAN_MOTION_DDOT
STARLINK-30558,2023-158K,2024-08-16T08:34:31.698048,15.02532257,0.0002367,43.0042,249.7685,271.498,88.5591,0,U,58060,999,4773,-4.1498e-05,-7.64e-06,0
STARLINK-30579,2023-158L,2024-08-15T17:11:31.850304,15.02536148,0.0001029,43.0049,227.4016,264.0302,96.0424,0,U,58061,999,4793,0.00010191,1.173e-05,0
STARLINK-30588,2023-158M,2024-08-16T12:14:36.164256,15.02543577,0.000151,43.0029,248.3472,266.222,93.845,0,U,58062,999,4776,0.00046494,6.084e-05,0
STARLINK-30585,2023-158N,2024-08-16T08:48:45.380160,15.0255119,0.0001328,43.0009,248.9988,267.3404,92.7286,0,U,58063,999,4774,0.00078066,0.00010362,0
STARLINK-30587,2023-158P,2024-08-15T18:46:22.766016,15.02535882,0.0001212,43.001,252.3479,260.8237,99.2468,0,U,58064,999,4765,0.0001556,1.899e-05,0
STARLINK-30576,2023-158Q,2024-08-15T08:14:38.219424,15.02533011,0.0001439,43.0033,255.0779,257.9387,102.1294,0,U,58065,999,4758,8.6138e-05,9.6e-06,0
STARLINK-30571,2023-158R,2024-08-16T08:39:10.370880,15.02537794,5.73e-05,42.9976,248.9481,142.2491,217.8392,0,U,58066,999,4774,0.00066743,8.824e-05,0
STARLINK-30567,2023-158S,2024-08-16T08:31:21.307008,15.02550482,7.11e-05,43,249.7488,262.3033,97.7729,0,U,58067,999,4773,0.00094805,0.00012631,0
STARLINK-30569,2023-158T,2024-08-15T09:02:25.445760,15.0253523,0.00015,43.0015,254.465,281.686,78.3813,0,U,58068,999,4759,0.00061886,8.166e-05,0
STARLINK-30480,2023-158U,2024-08-15T17:03:31.696992,15.25929422,0.0004932,43.0003,226.2826,260.0564,99.9731,0,U,58069,999,4795,0.00041081,0.00010512,0
STARLINK-30532,2023-158V,2024-08-16T08:53:33.446400,15.02532709,0.000131,43.0024,249.0181,277.0782,82.9911,0,U,58070,999,4774,0.00035081,4.538e-05,0
STARLINK-30513,2023-158W,2024-08-15T23:54:35.911872,15.40692846,5.34e-05,43.005,126.8866,97.2189,262.8729,0,U,58071,999,4912,-1.565e-05,-9.57e-06,0
STARLINK-30506,2023-158X,2024-08-16T08:43:54.459264,15.02525398,0.000103,43.0015,248.9684,269.9989,90.0735,0,U,58072,999,4774,-0.00076237,-0.00010484,0
YUNHAI-1 04,2023-159A,2024-08-16T20:09:49.659840,14.33112763,9.24e-05,98.5642,254.7956,81.2685,278.8604,0,U,58073,999,4394,0.00038775,1.02e-05,0
OBJECT A,2023-190A,2024-08-16T21:25:48.833184,13.39487226,0.0002286,86.5062,204.0651,94.95,265.1903,0,U,58505,999,3509,0.0002371,1.43e-06,0
STARLINK-31026,2023-191A,2024-08-16T00:14:12.713568,15.02533408,0.000119,43.001,327.9836,270.2813,89.7893,0,U,58508,999,3958,0.0006346,8.378e-05,0
STARLINK-31020,2023-191B,2024-08-16T00:09:35.182080,15.0252734,8.24e-05,42.9973,328.8032,134.0595,226.0315,0,U,58509,999,3957,0.00010248,1.181e-05,0
STARLINK-30989,2023-191C,2024-08-16T18:04:25.495968,15.0254503,0.0002846,43.0066,323.2486,300.2561,59.8,0,U,58510,999,3974,0.00033321,4.301e-05,0
STARLINK-30968,2023-191D,2024-08-16T14:48:12.137760,15.02515886,0.0002879,43.008,323.9416,276.1458,83.9056,0,U,58511,999,3966,0.00043438,5.666e-05,0
STARLINK-30982,2023-191E,2024-08-16T17:54:50.799456,15.02548011,0.0002591,43.0065,323.19,271.4764,88.5781,0,U,58512,999,3962,0.00042049,5.483e-05,0
STARLINK-30998,2023-191F,2024-08-15T13:06:55.909152,15.02541614,0.0001681,43.0033,329.6628,270.4739,89.5911,0,U,58513,999,3955,0.00025658,3.264e-05,0
STARLINK-30983,2023-191G,2024-08-16T13:36:15.184224,15.02550471,9.24e-05,43.0034,323.5741,268.3157,91.7579,0,U,58514,999,3927,9.826e-05,1.124e-05,0
STARLINK-31017,2023-191H,2024-08-16T07:06:47.586240,15.40699165,4.9e-05,42.9998,237.6545,183.778,176.3073,0,U,58515,999,4065,-7.5508e-06,-6.18e-06,0
STARLINK-31028,2023-191J,2024-08-16T00:07:25.966560,15.02551565,0.0003355,42.9975,327.0888,263.8411,96.205,0,U,58516,999,3959,0.0002347,2.969e-05,0
STARLINK-31011,2023-191K,2024-08-16T00:12:14.439744,15.02548147,0.0002738,42.9998,327.1118,258.2531,101.8005,0,U,58517,999,3959,0.00062494,8.251e-05,0
STARLINK-31021,2023-191L,2024-08-16T18:09:02.020896,15.02562069,0.0001346,43.0037,322.3876,259.7286,100.3405,0,U,58518,999,3974,0.00026654,3.401e-05,0
STARLINK-31010,2023-191M,2024-08-15T23:05:06.722304,15.02524688,0.0001174,43.0094,326.718,266.6218,93.449,0,U,58519,999,3959,0.00054534,7.168e-05,0
